1 29155U 06018A   09275.44492737 -.00000085  00000-0  10000-3 0  7705
2 29155 000.1451 113.5469 0003321 087.6448 224.7878 01.00272764 12336